              M50 Cartesian                         M50 Keplerian  
    -----------------------------------       --------------------------------
     X    =       -5802323.31                 A    =         6788008.61  meter
     Y    =       -3397793.94  meter          E    =           .0010057
     Z    =        -907456.35                 I    =           51.81796
     XDOT =       3102.179798                 Wp   =          126.43842
     YDOT =      -3725.054636  meter/sec      RA   =           24.26044  deg
     ZDOT =      -5939.261215                 TA   =           63.35805
                                              MA   =           63.25507
                                              Ha   =            221.217  n.mi
                                              Hp   =            213.471
 
              M50 Cartesian                         J2K Cartesian  
    -----------------------------------       --------------------------------
     X    =      -19036493.81                 X    =        -5759489.03
     Y    =      -11147617.91  feet           Y    =        -3462439.92  meter
     Z    =       -2977219.00                 Z    =         -935538.58
     XDOT =      10177.755244                 XDOT =        3172.454299
     YDOT =     -12221.307862  feet/sec       YDOT =       -3689.971348  meter/sec
     ZDOT =     -19485.765140                 ZDOT =       -5924.020636
 
              TDR Cartesian                         TDR Cartesian  
    -----------------------------------       --------------------------------
     X    =      -14152941.10                 X    =        -4313816.45
     Y    =       16900129.12  feet           Y    =         5151159.36  meter
     Z    =       -3098581.68                 Z    =         -944447.69
     XDOT =      -9108.736166                 XDOT =       -2776.342783
     YDOT =     -11158.675328  feet/sec       YDOT =       -3401.164240  meter/sec
     ZDOT =     -19418.798572                 ZDOT =       -5918.849805
  
  
    The mean element set is posted at the UTC for which position is
    just north of the next ascending node relative to the above
    vector time
 
 
    TWO LINE MEAN ELEMENT SET
  
    ISS
    1 25544U 98067A   16103.69702970  .00016717  00000-0  10270-3 0  9176
    2 25544  51.6439  24.6853 0002480  47.7305 312.4058 15.54451391 34792
  
  
    Satellite: ISS
    Catalog Number: 25544
    Epoch time:      16103.69702970   =   yrday.fracday
    Element set:     917
    Inclination:       51.6439  deg
    RA of node:        24.6853  deg
    Eccentricity:     .0002480     
    Arg of perigee:    47.7305  deg
    Mean anomaly:     312.4058  deg
    Mean motion:   15.54451391  rev/day
    Decay rate:    1.67170E-04  rev/day^2
    Epoch rev:            3479
    Checksum:              312
 
 
    Coasting Arc #19 (Orbit 3491)
    ---------------------------------------
 
    Vector Time (GMT): 2016/104/12:23:00.506
    Vector Time (MET): N/A
    Weight (LBS)     : 943644.8
 
              M50 Cartesian                         M50 Keplerian  
    -----------------------------------       --------------------------------
     X    =         954974.39                 A    =         6777970.80  meter
     Y    =       -4111675.21  meter          E    =           .0014764
     Z    =       -5315886.69                 I    =           51.75414
     XDOT =       7295.997808                 Wp   =           83.09240
     YDOT =       2280.115436  meter/sec      RA   =           20.02780  deg
     ZDOT =       -452.253626                 TA   =          182.59090
                                              MA   =          182.59856
                                              Ha   =            221.287  n.mi
                                              Hp   =            215.025
 
              M50 Cartesian                         J2K Cartesian  
    -----------------------------------       --------------------------------
     X    =        3133118.07                 X    =         1026703.59
     Y    =      -13489748.08  feet           Y    =        -4100595.26  meter
     Z    =      -17440573.14                 Z    =        -5311073.22
     XDOT =      23937.000683                 XDOT =        7272.155598
     YDOT =       7480.693687  feet/sec       YDOT =        2361.570802  meter/sec
     ZDOT =      -1483.771740                 ZDOT =        -416.869370
 
              TDR Cartesian                         TDR Cartesian  
    -----------------------------------       --------------------------------
     X    =       -3239077.80                 X    =         -987270.91
     Y    =      -13492801.63  feet           Y    =        -4112605.94  meter
     Z    =      -17418840.45                 Z    =        -5309262.57
     XDOT =      23746.516936                 XDOT =        7237.938362
     YDOT =      -3980.221134  feet/sec       YDOT =       -1213.171402  meter/sec
     ZDOT =      -1330.460975                 ZDOT =        -405.524505
  
  
    The mean element set is posted at the UTC for which position is
    just north of the next ascending node relative to the above
    vector time
 
 
    TWO LINE MEAN ELEMENT SET
  
    ISS
    1 25544U 98067A   16104.53276780  .00016717  00000-0  10270-3 0  9186
    2 25544  51.6438  20.5171 0000856 353.3794   6.7347 15.53936289 34924
  
  
    Satellite: ISS
    Catalog Number: 25544
    Epoch time:      16104.53276780   =   yrday.fracday
    Element set:     918
    Inclination:       51.6438  deg
    RA of node:        20.5171  deg
    Eccentricity:     .0000856     
    Arg of perigee:   353.3794  deg
    Mean anomaly:       6.7347  deg
    Mean motion:   15.53936289  rev/day
    Decay rate:    1.67170E-04  rev/day^2
    Epoch rev:            3492
    Checksum:              324
 
             </PRE>
           </TD>
        </TR>
    </TABLE>
    
    <table align="center" border="0" width="600" cellpadding="0" cellspacing="0">
      <tr>
        <td align="center" valign="top"><hr size="1" width="600" noshade="noshade" />
        <font face="Arial,helvetica" size="-2">Curator: <a href="/cgi-bin/comment.cgi?jsc-hsfwebma@mail.nasa.gov">Kim 
          Dismukes</a> | Responsible NASA Official: <a href="/cgi-bin/comment.cgi?jsc-hsfwebma@mail.nasa.gov">Amiko Kauderer</a> | Updated: 06/08/2009<br />
        <a href="http://www.nasa.gov/about/highlights/HP_Privacy.html">Privacy Policy and Important Notices</a></font></td>
      </tr>
    </table>
    </body>
    </html>
